CTC1_L_00517001-01
1 58586U 25688MU  26037.47807870  .00000000  00000+0  00000-0 0  9999
2 58586  97.6000   0.0000 0000000   0.0000   0.0000 14.98994923    15
CTC1_L_00517002-01
1 58587U 22694DD  26037.47807870  .00000000  00000+0  00000-0 0  9994
2 58587  97.6000  12.0000 0000000   0.0000  48.0000 14.98994923    11
CTC1_L_00517003-01
1 58588U 23495X   26037.47807870  .00000000  00000+0  00000-0 0  9995
2 58588  97.6000  24.0000 0000000   0.0000  96.0000 14.98994923    18
CTC1_L_00517004-01
1 58589U 22856AB  26037.47807870  .00000000  00000+0  00000-0 0  9996
2 58589  97.6000  36.0000 0000000   0.0000 144.0000 14.98994923    16
CTC1_L_00517005-01
1 58590U 23566IR  26037.47807870  .00000000  00000+0  00000-0 0  9997
2 58590  97.6000  48.0000 0000000   0.0000 192.0000 14.98994923    14
CTC1_L_00517006-01
1 58591U 25351RR  26037.47807870  .00000000  00000+0  00000-0 0  9992
2 58591  97.6000  60.0000 0000000   0.0000 240.0000 14.98994923    13
CTC1_L_00517007-01
1 58592U 24632SV  26037.47807870  .00000000  00000+0  00000-0 0  9994
2 58592  97.6000  72.0000 0000000   0.0000 288.0000 14.98994923    19
CTC1_L_00517008-01
1 58593U 24582UQ  26037.47807870  .00000000  00000+0  00000-0 0  9999
2 58593  97.6000  84.0000 0000000   0.0000 336.0000 14.98994923    17
CTC1_L_00517009-01
1 58594U 22348KL  26037.47807870  .00000000  00000+0  00000-0 0  9998
2 58594  97.6000  96.0000 0000000   0.0000  24.0000 14.98994923    15
CTC1_L_00517010-01
1 58595U 25653UP  26037.47807870  .00000000  00000+0  00000-0 0  9991
2 58595  97.6000 108.0000 0000000   0.0000  72.0000 14.98994923    13
CTC1_L_00517011-01
1 58596U 23403TR  26037.47807870  .00000000  00000+0  00000-0 0  9993
2 58596  97.6000 120.0000 0000000   0.0000 120.0000 14.98994923    12
CTC1_L_00517012-01
1 58597U 22215UW  26037.47807870  .00000000  00000+0  00000-0 0  9994
2 58597  97.6000 132.0000 0000000   0.0000 168.0000 14.98994923    18
CTC1_L_00517013-01
1 58598U 26311VU  26037.47807870  .00000000  00000+0  00000-0 0  9996
2 58598  97.6000 144.0000 0000000   0.0000 216.0000 14.98994923    16
CTC1_L_00517014-01
1 58599U 22891DT  26037.47807870  .00000000  00000+0  00000-0 0  9996
2 58599  97.6000 156.0000 0000000   0.0000 264.0000 14.98994923    13
CTC1_L_00517015-01
1 58600U 24955UC  26037.47807870  .00000000  00000+0  00000-0 0  9992
2 58600  97.6000 168.0000 0000000   0.0000 312.0000 14.98994923    13
CTC1_L_00517016-01
1 58601U 23577BD  26037.47807870  .00000000  00000+0  00000-0 0  9992
2 58601  97.6000 180.0000 0000000   0.0000   0.0000 14.98994923    12
CTC1_L_00517017-01
1 58602U 24435U   26037.47807870  .00000000  00000+0  00000-0 0  9997
2 58602  97.6000 192.0000 0000000   0.0000  48.0000 14.98994923    18
CTC1_L_00517018-01
1 58603U 22503MD  26037.47807870  .00000000  00000+0  00000-0 0  9992
2 58603  97.6000 204.0000 0000000   0.0000  96.0000 14.98994923    16
CTC1_L_00517019-01
1 58604U 25386GO  26037.47807870  .00000000  00000+0  00000-0 0  9995
2 58604  97.6000 216.0000 0000000   0.0000 144.0000 14.98994923    14
CTC1_L_00517020-01
1 58605U 22942VV  26037.47807870  .00000000  00000+0  00000-0 0  9991
2 58605  97.6000 228.0000 0000000   0.0000 192.0000 14.98994923    11
CTC1_L_00517021-01
1 58606U 24119BX  26037.47807870  .00000000  00000+0  00000-0 0  9990
2 58606  97.6000 240.0000 0000000   0.0000 240.0000 14.98994923    10
CTC1_L_00517022-01
1 58607U 22379BJ  26037.47807870  .00000000  00000+0  00000-0 0  9997
2 58607  97.6000 252.0000 0000000   0.0000 288.0000 14.98994923    16
CTC1_L_00517023-01
1 58608U 24153TB  26037.47807870  .00000000  00000+0  00000-0 0  9990
2 58608  97.6000 264.0000 0000000   0.0000 336.0000 14.98994923    14
CTC1_L_00517024-01
1 58609U 23783PN  26037.47807870  .00000000  00000+0  00000-0 0  9999
2 58609  97.6000 276.0000 0000000   0.0000  24.0000 14.98994923    12
CTC1_L_00517025-01
1 58610U 26083OM  26037.47807870  .00000000  00000+0  00000-0 0  9997
2 58610  97.6000 288.0000 0000000   0.0000  72.0000 14.98994923    10
CTC1_L_00517026-01
1 58611U 26280ST  26037.47807870  .00000000  00000+0  00000-0 0  9997
2 58611  97.6000 300.0000 0000000   0.0000 120.0000 14.98994923    10
CTC1_L_00517027-01
1 58612U 23528Z   26037.47807870  .00000000  00000+0  00000-0 0  9990
2 58612  97.6000 312.0000 0000000   0.0000 168.0000 14.98994923    16
CTC1_L_00517028-01
1 58613U 23684QR  26037.47807870  .00000000  00000+0  00000-0 0  9994
2 58613  97.6000 324.0000 0000000   0.0000 216.0000 14.98994923    14
CTC1_L_00517029-01
1 58614U 25304EP  26037.47807870  .00000000  00000+0  00000-0 0  9996
2 58614  97.6000 336.0000 0000000   0.0000 264.0000 14.98994923    11
CTC1_L_00517030-01
1 58615U 24945JA  26037.47807870  .00000000  00000+0  00000-0 0  9997
2 58615  97.6000 348.0000 0000000   0.0000 312.0000 14.98994923    19
